[{"OBJECT_NAME":"STARLINK-30111","OBJECT_ID":"2023-056S","EPOCH":"2026-03-09T22:00:01.999584","MEAN_MOTION":15.26728567,"ECCENTRICITY":0.00015825,"INCLINATION":42.9995,"RA_OF_ASC_NODE":207.0959,"ARG_OF_PERICENTER":287.005,"MEAN_ANOMALY":306.6901,"EPHEMERIS_TYPE":0,"CLASSIFICATION_TYPE":"U","NORAD_CAT_ID":56302,"ELEMENT_SET_NO":999,"REV_AT_EPOCH":578,"BSTAR":0.0014917181,"MEAN_MOTION_DOT":0.00039957,"MEAN_MOTION_DDOT":0},{"OBJECT_NAME":"TIANMU-1 14","OBJECT_ID":"2023-205D","EPOCH":"2026-03-09T23:38:37.144032","MEAN_MOTION":15.2583937,"ECCENTRICITY":0.00072842,"INCLINATION":97.35,"RA_OF_ASC_NODE":91.4174,"ARG_OF_PERICENTER":335.7472,"MEAN_ANOMALY":24.3423,"EPHEMERIS_TYPE":0,"CLASSIFICATION_TYPE":"U","NORAD_CAT_ID":58648,"ELEMENT_SET_NO":999,"REV_AT_EPOCH":12237,"BSTAR":0.00030290643,"MEAN_MOTION_DOT":7.686e-5,"MEAN_MOTION_DDOT":0}]
